[{"OBJECT_NAME":"STARLINK-2385","OBJECT_ID":"2021-018T","EPOCH":"2026-03-10T00:00:02.999808","MEAN_MOTION":15.29343467,"ECCENTRICITY":0.00013042,"INCLINATION":53.1553,"RA_OF_ASC_NODE":228.6907,"ARG_OF_PERICENTER":89.457,"MEAN_ANOMALY":150.4557,"EPHEMERIS_TYPE":0,"CLASSIFICATION_TYPE":"U","NORAD_CAT_ID":47804,"ELEMENT_SET_NO":999,"REV_AT_EPOCH":579,"BSTAR":0.00030794582,"MEAN_MOTION_DOT":8.537e-5,"MEAN_MOTION_DDOT":0},{"OBJECT_NAME":"TIANMU-1 08","OBJECT_ID":"2023-101B","EPOCH":"2026-03-07T00:03:25.475616","MEAN_MOTION":15.29204229,"ECCENTRICITY":0.00063808,"INCLINATION":97.2717,"RA_OF_ASC_NODE":118.7901,"ARG_OF_PERICENTER":134.2174,"MEAN_ANOMALY":225.9592,"EPHEMERIS_TYPE":0,"CLASSIFICATION_TYPE":"U","NORAD_CAT_ID":57400,"ELEMENT_SET_NO":999,"REV_AT_EPOCH":14602,"BSTAR":1.4774513e-5,"MEAN_MOTION_DOT":3.46e-6,"MEAN_MOTION_DDOT":0}]
